ONEWEB-0387             
1 49313U 21090AL  23005.67484161  .00000108  00000+0  23489-3 0  9996
2 49313  87.9330 164.8639 0001278  95.9181 264.2098 13.20774158 63693
ONEWEB-0388             
1 49314U 21090AM  23006.22713068  .00000121  00000+0  27001-3 0  9999
2 49314  87.9271 195.0191 0001582  93.2012 266.9302 13.19725614 61785
ONEWEB-0389             
1 50469U 21132A   23006.38906200  .00000155  00000+0  36519-3 0  9999
2 50469  87.9100 255.7270 0000894  85.4425 274.6809 13.17648830 53733
ONEWEB-0390             
1 50470U 21132B   23006.46654473  .00000069  00000+0  14460-3 0  9997
2 50470  87.9102 255.7135 0001048  69.1432 290.9811 13.17648260 53748
ONEWEB-0391             
1 50471U 21132C   23006.39214519  .00000100  00000+0  22329-3 0  9992
2 50471  87.9102 255.6996 0001100  78.2752 281.8502 13.17651867 53730
ONEWEB-0392             
1 50472U 21132D   23006.43553097  .00000056  00000+0  11012-3 0  9992
2 50472  87.9106 255.7258 0001350  71.5492 288.5786 13.17646859 53778
ONEWEB-0393             
1 50473U 21132E   23005.45781082 -.00000007  00000+0 -51795-4 0  9992
2 50473  87.9097 255.9071 0001437  61.2104 298.9172 13.18155624 52347
ONEWEB-0394             
1 50474U 21132F   23006.91667824  .00000015  00000+0  00000+0 0  9997
2 50474  87.6345 225.5858 0003636  86.0407 146.9454 13.72112447 57112
ONEWEB-0395             
1 50475U 21132G   23006.49040962  .00000561  00000+0  15457-2 0  9990
2 50475  87.8854 270.9982 0001302  66.9879 293.1386 13.11416998 52148
ONEWEB-0396             
1 50476U 21132H   23006.91667824  .00000016  00000+0  00000+0 0  9990
2 50476  87.6609 225.6155 0001819  88.7876 129.2488 13.79174315 57152
ONEWEB-0397             
1 50477U 21132J   23006.91667824  .00000016  00000+0  00000+0 0  9991
2 50477  87.6198 225.6735 0004136  57.2532 347.1099 13.78111173 57123
ONEWEB-0398             
1 50478U 21132K   23006.53412978 -.00000647  00000+0 -18601-2 0  9999
2 50478  87.8858 270.9790 0001175  53.3224 306.8012 13.11418142 52055
ONEWEB-0399             
1 50479U 21132L   23006.44437231 -.00000423  00000+0 -12285-2 0  9993
2 50479  87.8856 271.0097 0001909  86.6189 273.5157 13.11415969 52032
ONEWEB-0400             
1 50480U 21132M   23006.91667824  .00000015  00000+0  00000+0 0  9994
2 50480  87.6498 225.5804 0002527  24.8395  28.7370 13.72895945 57130
ONEWEB-0401             
1 50481U 21132N   23006.91667824  .00000016  00000+0  00000+0 0  9996
2 50481  87.6401 225.6159 0002718  62.1408 349.9668 13.76170370 57131
ONEWEB-0402             
1 50482U 21132P   23006.91667824  .00000016  00000+0  00000+0 0  9997
2 50482  87.6754 225.6006 0005252  77.4652 219.3259 13.82616051 57156
ONEWEB-0403             
1 50483U 21132Q   23006.91667824  .00000015  00000+0  00000+0 0  9997
2 50483  87.6468 225.5728 0002133 103.8376 354.9211 13.71517666 57133
ONEWEB-0404             
1 50484U 21132R   23005.73957296  .00010430  00000+0  29390-1 0  9999
2 50484  87.8852 271.1120 0001106 102.8871 257.2380 13.11350000 50758
ONEWEB-0405             
1 50485U 21132S   23006.33334491 -.01536429  00000+0 -36181+0 0  9991
2 50485  87.3373 227.6475 0001813  25.8459 337.0620 14.57905660 57190
ONEWEB-0406             
1 50486U 21132T   23006.91667824  .00000016  00000+0  00000+0 0  9991
2 50486  87.6343 225.6161 0005664   9.7367  60.2665 13.75358435 57160
ONEWEB-0407             
1 50487U 21132U   23006.91667824  .00000015  00000+0  00000+0 0  9991
2 50487  87.6844 225.5662 0003974   3.5797 161.6027 13.67929787 57111
ONEWEB-0409             
1 50488U 21132V   23005.66121819  .00000115  00000+0  28874-3 0  9996
2 50488  87.8862 271.1230 0000962  83.4325 276.6913 13.11415778 51912
ONEWEB-0412             
1 50489U 21132W   23006.91667824  .00000015  00000+0  00000+0 0  9993
2 50489  87.6215 225.5859 0004228  37.4320 320.7032 13.70847903 57188
ONEWEB-0413             
1 50490U 21132X   23006.91667824  .00000015  00000+0  00000+0 0  9995
2 50490  87.6989 225.5673 0004374  74.9465 275.8649 13.69699321 57136
ONEWEB-0414             
1 50491U 21132Y   23006.91667824  .00000015  00000+0  00000+0 0  9996
2 50491  87.6613 225.5910 0004511  30.7202  84.6902 13.73438481 57138
ONEWEB-0417             
1 50492U 21132Z   23006.91667824  .00000016  00000+0  00000+0 0  9998
2 50492  87.6300 225.6170 0005219  26.2386 174.4285 13.75818120 57147
ONEWEB-0418             
1 50493U 21132AA  23006.91667824  .00000016  00000+0  00000+0 0  9999
2 50493  87.6015 225.6830 0004978  41.6922  53.0561 13.77776203 57137
ONEWEB-0419             
1 50494U 21132AB  23006.91667824  .00000015  00000+0  00000+0 0  9999
2 50494  87.6824 225.5331 0004912 342.8057  92.1680 13.69051249 57126
ONEWEB-0420             
1 50495U 21132AC  23006.91667824  .00000015  00000+0  00000+0 0  9990
2 50495  87.6702 225.4876 0005320  84.3489 135.7228 13.65032426 57131
ONEWEB-0421             
1 50496U 21132AD  23006.91667824  .00000015  00000+0  00000+0 0  9991
2 50496  87.7374 225.4818 0004864 106.4971 159.8667 13.76937875 57169
ONEWEB-0424             
1 50497U 21132AE  23006.91667824  .00000016  00000+0  00000+0 0  9993
2 50497  87.5779 225.7041 0003672  27.4846 337.4679 13.77438089 57146
ONEWEB-0426             
1 50498U 21132AF  23006.91667824  .00000015  00000+0  00000+0 0  9993
2 50498  87.6429 225.5633 0003288 109.6230  33.8557 13.71857762 57136
ONEWEB-0427             
1 50499U 21132AG  23006.91667824  .00000015  00000+0  00000+0 0  9994
2 50499  87.7275 225.4729 0001539  61.7805  77.6016 13.73344837 57160
ONEWEB-0429             
1 50500U 21132AH  23006.91667824  .00000015  00000+0  00000+0 0  9997
2 50500  87.6489 225.5285 0004658  67.6893 169.4899 13.66632960 57128
ONEWEB-0430             
1 50501U 21132AJ  23006.91667824  .00000016  00000+0  00000+0 0  9999
2 50501  87.6334 225.6857 0003861  12.6084 332.2815 13.80305014 57133
ONEWEB-0432             
1 50502U 21132AK  23006.91667824  .00000015  00000+0  00000+0 0  9999
2 50502  87.6998 225.5070 0005975  72.7180   6.7370 13.68370134 57149
ONEWEB-0440             
1 50503U 21132AL  23006.91667824  .00000015  00000+0  00000+0 0  9990
2 50503  87.6445 225.5275 0004979  63.8963  31.6892 13.65806216 57112
ONEWEB-0450             
1 50504U 21132AM  23006.91667824  .00000016  00000+0  00000+0 0  9992
2 50504  87.6253 225.6517 0002348  48.0283 288.7519 13.77168527 57130
ONEWEB-0410             
1 51622U 22012A   23005.41423525 -.00000047  00000+0 -15369-3 0  9998
2 51622  87.9142 255.9358 0001058 146.5176 213.6023 13.17647671 47933
ONEWEB-0411             
1 51623U 22012B   23006.48227779 -.00000392  00000+0 -11606-2 0  9992
2 51623  87.8774 286.2351 0001070  65.6130 294.5109 13.10370568 45841
ONEWEB-0415             
1 51624U 22012C   23006.17372782 -.00000429  00000+0 -12643-2 0  9997
2 51624  87.8763 286.2737 0001526  54.5658 305.5611 13.10371088 45812
ONEWEB-0416             
1 51625U 22012D   23006.71912828 -.00000635  00000+0 -18569-2 0  9991
2 51625  87.8758 286.1444 0001812  69.9282 290.2040 13.10373792 45935
ONEWEB-0422             
1 51626U 22012E   23006.40764837  .00000117  00000+0  26885-3 0  9997
2 51626  87.9101 255.7800 0002575  75.8357 284.3060 13.17646822 49454
ONEWEB-0423             
1 51627U 22012F   23006.40299111  .00000091  00000+0  20142-3 0  9997
2 51627  87.9080 255.7348 0001319  77.3702 282.7577 13.17647853 49353
ONEWEB-0425             
1 51628U 22012G   23006.49941431 -.00000426  00000+0 -12577-2 0  9992
2 51628  87.8757 286.1896 0001813  93.6121 266.5213 13.10377064 45906
ONEWEB-0428             
1 51629U 22012H   23006.25162571 -.00000448  00000+0 -13194-2 0  9997
2 51629  87.8812 286.2425 0002236  70.5809 289.5560 13.10370378 45827
ONEWEB-0431             
1 51630U 22012J   23005.74518462  .00000109  00000+0  27732-3 0  9992
2 51630  87.8806 286.3541 0002048  47.6159 312.5141 13.10377191 45828
ONEWEB-0434             
1 51631U 22012K   23006.50251270 -.00000654  00000+0 -19112-2 0  9998
2 51631  87.8824 286.1954 0002113  67.5998 292.5353 13.10375938 45908
ONEWEB-0435             
1 51632U 22012L   23006.20645941  .00000207  00000+0  55778-3 0  9999
2 51632  87.8819 286.2516 0002386  67.4098 292.7281 13.10375626 45849
ONEWEB-0436             
1 51633U 22012M   23006.39989440  .00000110  00000+0  25135-3 0  9992
2 51633  87.9139 255.7349 0001933  79.5973 280.5377 13.17647200 49330
ONEWEB-0438             
1 51634U 22012N   23005.73114909 -.00000519  00000+0 -15232-2 0  9991
2 51634  87.8816 286.3464 0001681  82.1401 277.9917 13.10375160 45822
ONEWEB-0439             
1 51635U 22012P   23006.72690690 -.00000561  00000+0 -16422-2 0  9997
2 51635  87.8797 286.1613 0001760  72.5778 287.5542 13.10371828 45922
ONEWEB-0442             
1 51636U 22012Q   23005.40652953  .00000023  00000+0  27030-4 0  9992
2 51636  87.9109 255.9492 0000480 103.0732 257.0453 13.17647255 47908
ONEWEB-0443             
1 51637U 22012R   23006.40609198  .00000025  00000+0  31409-4 0  9994
2 51637  87.9138 255.7225 0002343  84.7068 275.4330 13.17644236 49377
ONEWEB-0444             
1 51638U 22012S   23006.71756186 -.00000610  00000+0 -17830-2 0  9991
2 51638  87.8817 286.1536 0002013  73.6316 286.5032 13.10368773 45944
ONEWEB-0445             
1 51639U 22012T   23005.74675206  .00000148  00000+0  38830-3 0  9995
2 51639  87.8802 286.3724 0001056  73.8629 286.2614 13.10377991 45816
ONEWEB-0446             
1 51640U 22012U   23006.71601171 -.00000620  00000+0 -18128-2 0  9999
2 51640  87.8768 286.1635 0001519  64.2967 295.8317 13.10372744 45942
ONEWEB-0448             
1 51641U 22012V   23006.49161171 -.00000605  00000+0 -17701-2 0  9995
2 51641  87.8768 286.2017 0001927  70.0098 290.1237 13.10368051 45878
ONEWEB-0449             
1 51642U 22012W   23005.50365199 -.00000454  00000+0 -13381-2 0  9995
2 51642  87.8823 286.3926 0001615  83.0909 277.0402 13.10374562 45760
